#dP2022  8 16  0  0  0.00000000      96 __u+U ITR00 EXT  IAC
## 2223 172800.00000000   900.00000000 59807 0.0000000000000
+  117   C06C07C08C09C10C11C12C13C14C16C19C20C21C22C23C24C25
+        C26C27C28C29C30C32C33C34C35C36C37C38C39C40C41C42C43
+        C44C45C46E01E02E03E04E05E07E08E09E10E11E12E13E14E15
+        E18E19E21E24E25E26E27E30E31E33E34E36G01G02G03G04G05
+        G06G07G08G09G10G11G12G13G14G15G16G17G18G19G20G21G22
+        G23G24G25G26G27G28G29G30G31G32J02J03R01R02R03R04R05
+        R07R08R09R11R12R13R14R15R17R18R19R20R21R24R25  0  0
++         8 10  8  8 10  7 10  9  8  8  8  8  9  7  9  7  8
++         9  9  7  8  8  7  8  8  8  8  9  8 10  9  8  9  9
++         9 10 11  8  7  8  7  9  8  8  9  8  8  8  9  8  8
++         7  7  7  7  7  7  7  9  8  8  8 10  7  8  8  8  8
++         8  7  7  8  8  8  7  8  7  7  8  7  7  8  8  8  7
++         7  8  8  8  7  7  8  7  7  7  8  9 10  9  9  7  8
++         9  8  9  9  8  7  9  9  9  9  8  9  9  8 10  0  0
%c M  cc GPS ccc cccc cccc cccc cccc ccccc ccccc ccccc ccccc
%c cc cc ccc ccc cccc cccc cccc cccc ccccc ccccc ccccc ccccc
%f  0.0000000  0.000000000  0.00000000000  0.000000000000000
%f  0.0000000  0.000000000  0.00000000000  0.000000000000000
%i    0    0    0    0      0      0      0      0         0
%i    0    0    0    0      0      0      0      0         0
/* IAC                                ULTRA-RAPID PREDICTION
/* S/V CLOCKS ARE ALIGNED TO GNSS TIME                      
/* G:C1WC2W R:C1PC2P E:C1XC5X C:C2IC6I J:C1CC2S             
/* PCV:IGS14_2218 OL/AL:FES2004  NONE     YN ORB:CoN CLK:CoN
*  2022 08 16 10 45  0.00000000
PC06  -1375.184991  30678.044355  29005.062846    623.309633
PC07 -16273.321550  28324.000203 -26694.758022    -10.153856
PC08 -12475.907219  40164.163570    528.689850    442.615015
PC09   5497.524651  34831.041208  23859.627303   -893.575779
PC10  -9099.824484  28584.347077 -29497.211406    107.967868
PC11  17971.899447  -1690.673323  21331.171811   -466.213530
PC12  22376.601916  14258.707581   8637.482707   -548.896040
PC13  -7627.178675  40810.861949   6556.267203     54.135455
PC14  26188.866184  -9275.341071  -2250.373125    594.491253
PC16  -3936.107535  28561.037664  31043.826381    142.343239
PC19 -21185.878733  14255.745921  11300.020932   -441.700938
PC20 -27092.987745   4049.339174  -5401.695040    118.409002
PC21  17014.572162   9371.853844  20036.591616   -197.594268
PC22  -2821.316366  16671.889744  22199.236336   -198.762574
PC23   3357.645056 -27308.066822   4679.721883   -965.196564
PC24  16765.135428   -850.950502 -22295.621670   -968.986940
PC25  13522.920906 -21336.617774 -11883.570668   -692.161225
PC26  10420.032016  17144.480839 -19390.164804    694.378919
PC27 -19897.896493 -19560.296407    -77.523920      6.113348
PC28  -6762.363164 -22011.614146  15771.737964      1.871002
PC29 -10862.525385  11643.818842 -22925.155776   -162.028873
PC30 -22377.747036  -5706.284822 -15664.073646    502.139087
PC32 -17051.524503  -9271.906256 -20045.225729   -645.768580
PC33  21152.708227 -14340.699240 -11189.618008   -423.903514
PC34  22083.631900   4763.715367  16379.204767   -335.023146
PC35   6306.444640  21524.957251 -16630.291097    414.820136
PC36 -14261.512053  20561.689789  12380.375361   -968.605814
PC37  -9283.084559 -18499.091707  18748.746222   -933.943988
PC38 -16188.753508  38130.892621  -7304.261093     17.523741
PC39  -7967.477806  24790.586793  33218.624746     -0.274236
PC40 -23117.199370  22192.062516 -27515.608359     -2.424540
PC41   3328.762003 -16773.187137 -22005.751322   -171.631949
PC42  26935.429262  -3239.676639   6528.313694   -124.250321
PC43  11611.605598 -11081.296348  22817.624654      8.915834
PC44  20487.227811  18968.001787   -167.557427     19.276275
PC45  -3159.743585  27260.372883  -4994.846337    836.388826
PC46 -16880.070945   2735.880002  22056.332697   -489.483398
PE01 -16522.616680  -6260.640032  23756.374342   -535.781692
PE02  16651.535138   6075.011336 -23702.462051    318.696414
PE03  26969.264110  10791.852024   5650.305954   -590.020047
PE04 -26790.446700   2326.355712  12379.599705  -1094.641763
PE05  11285.714060  17846.489136  20744.435439   -153.016581
PE07  10694.010679 -14412.429190 -23533.126278   -697.083708
PE08  26696.412616  -2429.702411 -12539.143869   -582.187079
PE09 -10704.942960  14278.781450  23619.863870   -624.839015
PE10 -11081.554162  14908.826335 -23056.023544   -507.834460
PE11  -4657.495536  23699.157003 -17132.342039   2612.629531
PE12 -15515.902254   4376.752200 -24833.815046   -118.039111
PE13   5052.753834 -23183.607570  17694.287110    430.265346
PE14  13084.091988  -9790.909009  16995.607417  -1747.980013
PE15  15490.336450  -4173.006001  24874.102209    726.539775
PE18 -19725.830768  11936.143536 -22735.897121  -1088.836395
PE19 -25737.895802 -12210.859039  -8033.244167  -4794.836015
PE21   -865.440886 -20260.550593  21568.043787   -752.133508
PE24 -17181.453697  23362.599165  -5889.813312   -783.784313
PE25    575.731640  20410.911848 -21416.793291   -584.725463
PE26  -8738.466223 -28278.176194   -708.785532  -1501.257339
PE27  16377.661601 -23675.129660   6908.385872   -369.585004
PE30  23903.931796 -12290.226129 -12410.757000   -758.878970
PE31 -23827.678095  13107.076326  11705.004003   -501.768141
PE33 -16732.130022 -17191.290564 -17343.494677   -453.806521
PE34  16792.009103  16985.633582  17461.276510   -491.213513
PE36   8248.518673  28426.568154   -208.252448   -417.526761
PG01  13768.822868  -4895.736678  21847.235016    301.099133
PG02 -15660.249664 -10730.638846 -17890.350878   -648.959571
PG03  22329.885452 -10675.142399   9358.652337   -332.855854
PG04  23169.929232   -632.522718 -13050.976970   -132.292431
PG05 -18862.636785   -499.136893 -18924.046843    -93.085828
PG06  -6414.628741 -25577.911455  -2768.348641    427.051406
PG07   7164.312893 -20244.990659 -14882.787960    314.223963
PG08  25817.445633   4880.731624   4974.770366    -80.696898
PG09  14590.557766  -9980.782366 -19907.986735   -307.566483
PG10  -5966.407044  19881.349724  16539.629604   -529.934314
PG11 -12177.187952 -19136.902121 -13846.185562    -11.432441
PG12 -22894.492248   7798.588731  10592.972361   -263.149738
PG13 -22880.100902 -13532.467696  -2199.144430    368.915139
PG14   8203.111336 -20200.824318  15100.310209   -108.989427
PG15 -26186.778985  -2269.907329   4381.889798    -36.840911
PG16  14849.502861   7315.822636 -21138.217306   -520.691646
PG17   -984.608448 -16152.303784  21485.178679    648.986496
PG18  -6913.005969  20784.000009 -14940.845849     80.082570
PG19 -11374.703974 -17609.992470  16206.712959    197.903267
PG20 -10057.222223 -12097.913182 -21409.173674    494.354612
PG21  16552.122838   5185.405051  20917.162508    160.441937
PG22  13578.502240  17638.430587  15040.832740    310.801283
PG23 -14823.525561  20541.354180   7768.744272    -37.057242
PG24 -15873.341561    785.942054  21003.690542    166.685835
PG25 -19713.271752  17573.818403   -548.419438    361.433595
PG26   7109.240983  14632.690015 -21040.936178    223.949780
PG27  22351.031807  13029.474968  -7075.267443    219.010552
PG28   -207.418822 -17311.833122  20714.345879    340.480838
PG29 -15411.638065   7969.362058 -20182.113049   -543.282614
PG30     33.330097 -25746.837325  -5863.435999   -535.945839
PG31   7786.133211  24584.364066  -5364.090973   -189.840876
PG32   4995.976017  16738.740990  20209.108939   -205.407909
PJ02 -35244.278803  23211.796256   6038.202945     -3.246959
PJ03 -20501.362273  21700.725496 -25173.519906     -0.697391
PR01  -5344.759441 -10317.057071 -22710.908844     13.218026
PR02 -22184.778689  -3634.137149 -11951.687329    527.077167
PR03 -24440.673673   4917.734982   5298.198234     61.936875
PR04 -13134.454010  10274.705970  19322.702384    154.099234
PR05   5389.178970  10177.358575  22770.942014     98.025180
PR07  24288.383207  -5164.850728  -5910.598342     39.462714
PR08  13025.561865 -10413.281765 -19258.684514    -66.723441
PR09   9913.730689   5552.836896 -22816.972450     71.509057
PR11  11121.070091 -22824.049061  -2351.335489     30.255970
PR12    965.893770 -20322.328052  15427.193561     20.079749
PR13  -8981.048563  -6877.226193  22854.872466    -25.776427
PR14 -14469.812970  12302.013979  17057.964727     24.504192
PR15 -11039.822230  22956.485290   1437.993739     94.169578
PR17 -12807.765176   -754.625869 -22052.369918    552.858799
PR18  -1796.054377  14060.920516 -21207.944465     37.781926
PR19   8693.054193  21609.739650 -10389.074740   -200.187562
PR20  16342.815317  16863.437809  10003.609410    -76.621105
PR21  11894.815737   -693.984573  22544.192777   -325.979458
PR24 -17001.083097 -15859.217691 -10509.172892    109.224687
PR25   2231.915475 -14652.417753  20780.688623     12.138861
EOF
